H-2A R/B                
1 27601U 02056E   24153.93086520  .00000400  00000+0  15762-3 0  9994
2 27601  98.2290 131.7573 0069954 287.3644 126.0024 14.32819655121588
CZ-4B R/B               
1 28059U 03049C   24153.90682928  .00000704  00000+0  17693-3 0  9998
2 28059  98.6098 115.8468 0050035  43.8432 316.6719 14.53771880 92701
CZ-2C R/B               
1 28222U 04012C   24153.55451925  .00011142  00000+0  43108-3 0  9991
2 28222  97.8041 165.8465 0036546 104.6425 255.8869 15.25756489104716
SL-16 R/B               
1 28353U 04021B   24153.39298565  .00000218  00000+0  13848-3 0  9997
2 28353  70.9980 148.6245 0006870 290.2809  69.7574 14.14411360 31442
CZ-4B R/B               
1 28415U 04035C   24154.08480772  .00007722  00000+0  40057-3 0  9990
2 28415  97.4246 188.0807 0044513  76.9336 283.6859 15.15545324 81675
CZ-2C R/B               
1 28480U 04046B   24153.44577233  .00000208  00000+0  93938-4 0  9991
2 28480  98.1618  98.7232 0139323 265.8939  92.6308 14.26375148 16355
ARIANE 5 R/B            
1 28499U 04049H   24153.87450603  .00001083  00000+0  13364-3 0  9998
2 28499  98.1823 291.4841 0087002 282.7308  76.4190 14.82532100 50021
CZ-2D R/B               
1 28738U 05024B   24153.52789213  .00009810  00000+0  38589-3 0  9994
2 28738  97.3632 152.3201 0008718 184.0441 176.0729 15.25815736 40278
SUZAKU (ASTRO-EII)      
1 28773U 05025A   24153.56919777  .00030154  00000+0  61325-3 0  9997
2 28773  31.3875 245.3643 0003220 125.7490 234.3465 15.45069391 44578
ALOS (DAICHI)           
1 28931U 06002A   24153.86608672  .00002379  00000+0  44517-3 0  9993
2 28931  98.0355 107.2525 0001705 123.4535 236.6832 14.65751247979101
H-2A R/B                
1 28932U 06002B   24154.17633900  .00005916  00000+0  44490-3 0  9991
2 28932  98.2071 245.0423 0069981 253.2886 106.0647 15.01028574997181
RESURS-DK 1             
1 29228U 06021A   24153.29201409  .00003313  00000+0  22635-3 0  9994
2 29228  69.9344 102.5160 0003222 351.1497   8.9609 15.07180937989924
GENESIS 1               
1 29252U 06029A   24154.22252071  .00015418  00000+0  40995-3 0  9992
2 29252  64.5154 216.5897 0023153 326.5063  33.4605 15.38165386988354
CZ-4B R/B               
1 29507U 06046C   24153.55764512  .00004259  00000+0  27979-3 0  9995
2 29507  97.6442 189.7022 0039257 332.6946  27.2218 15.07533758962367
CZ-2C R/B               
1 31114U 07010B   24153.82261607  .00000144  00000+0  85724-4 0  9993
2 31114  98.3306 290.7875 0059635  14.3123 345.9727 14.19788447888061
COSMO-SKYMED 1          
1 31598U 07023A   24154.14860965  .00000764  00000+0  10251-3 0  9991
2 31598  97.8867 337.5149 0001513  88.4327 271.7060 14.82156145918960
GENESIS 2               
1 31789U 07028A   24153.59506910  .00017073  00000+0  47796-3 0  9998
2 31789  64.4900 264.2553 0023538 226.0698 133.8492 15.36503716935020
COSMOS 2428             
1 31792U 07029A   24154.18815573 -.00000175  00000+0 -68746-4 0  9993
2 31792  70.9417 118.2482 0007557  63.4230 296.7665 14.12717928873001
SL-16 R/B               
1 31793U 07029B   24153.88637495  .00000051  00000+0  51470-4 0  9992
2 31793  70.9749  89.7261 0002551 262.5608 154.3861 14.14626954874128
KORONAS-FOTON           
1 33504U 09003A   24153.59346511  .00007403  00000+0  28529-3 0  9998
2 33504  82.4382 218.5740 0013972 297.5847  62.3971 15.26078012846643
CZ-2C R/B               
1 37731U 11030B   24153.48682302  .00001634  00000+0  23002-3 0  9997
2 37731  97.7629 117.9433 0054629 291.8739 181.6944 14.77657152694531
H-2A R/B                
1 38341U 12025E   24153.61456647  .00002619  00000+0  28235-3 0  9993
2 38341  98.4249  64.1732 0049164 258.2730 101.2966 14.88540370651873
CUSAT 2 & FALCON 9 R/B  
1 39271U 13055G   24154.19125103  .00085844  75381-6  99054-3 0  9993
2 39271  80.9329  97.7403 0306506 358.0374   1.9624 15.21426862563097
SHIJIAN-16 (SJ-16)      
1 39358U 13057A   24154.19451943  .00001320  00000+0  14373-3 0  9992
2 39358  74.9725 324.1818 0018223 234.4604 125.4883 14.88763713575387
CZ-2C R/B               
1 39364U 13059B   24153.68947719  .00265996  28708-4  75716-3 0  9994
2 39364  97.0365 203.5434 0014387 217.3760 142.6516 15.93116250590807
SL-4 R/B                
1 39679U 14021B   24153.57980017  .00006412  00000+0  24660-3 0  9997
2 39679  51.6099 202.8527 0137416 302.7920  55.9880 15.19365890557398
ALOS-2                  
1 39766U 14029A   24154.23095412  .00002339  00000+0  31998-3 0  9998
2 39766  97.9206 251.0870 0001648  98.0127 262.1271 14.79475499541465
SL-27 R/B               
1 40354U 14084B   24153.70146574  .00047656  00000+0  32363-3 0  9999
2 40354  74.7237 243.5805 0017399  44.3735 315.8885 15.74506943532103
YAOGAN-29               
1 41038U 15069A   24154.18585507  .00000678  00000+0  92878-4 0  9990
2 41038  98.0548 168.5098 0000674 336.4908  23.6274 14.81746385460246
ASTRO-H (HITOMI)        
1 41337U 16012A   24153.53180045  .00002765  00000+0  19045-3 0  9990
2 41337  31.0007 188.2285 0010774 339.6255  20.3951 15.03708453454668
HXMT (HUIYAN)           
1 42758U 17034A   24154.06180748  .00007602  00000+0  42005-3 0  9999
2 42758  43.0156 358.5204 0013232  58.3237 301.8899 15.14216423384566
CZ-2C R/B               
1 43521U 18054D   24153.47072438  .00010853  00000+0  36851-3 0  9995
2 43521  35.1463 215.8774 0056876 347.7551  12.1785 15.28140368328462
SAOCOM 1A               
1 43641U 18076A   24154.15717178  .00000665  00000+0  90119-4 0  9993
2 43641  97.8886 340.6011 0001537  87.2131 272.9258 14.82152890305743
H-2A R/B                
1 43682U 18084L   24153.24059454  .00009450  00000+0  50287-3 0  9994
2 43682  98.8513 238.0947 0045221  64.0099 296.5776 15.14634460307088
SAOCOM 1B               
1 46265U 20059A   24154.18838707  .00000653  00000+0  88608-4 0  9994
2 46265  97.8886 339.7244 0001393  90.6131 269.5242 14.82156229203149
CSS (TIANHE)            
1 48274U 21035A   24154.21834236 -.00060628  00000+0 -69646-3 0  9998
2 48274  41.4669 174.3214 0000424 112.6919 347.1147 15.61231128176751
COSMOS 2550             
1 48865U 21056A   24154.22321233 -.00000069  00000+0  37414-5 0  9998
2 48865  67.1391 193.5746 0008389 269.2917  90.7277 15.33829505164485
2022-019U               
1 51842U 22019U   24154.10948671  .00177365  00000+0  11769-2 0  9990
2 51842  97.5094 259.7764 0022922 157.6310 202.5959 15.74604213126741
CZ-2C R/B               
1 52794U 22058K   24153.53406313  .00012811  00000+0  50448-3 0  9990
2 52794  50.1764 317.6424 0080142  65.4315 295.4968 15.22980652110733
XRISM                   
1 57800U 23137A   24154.20050891  .00004433  00000+0  33228-3 0  9991
2 57800  31.0024 108.0000 0009352  58.8838 301.2714 15.01034725 40437
